#aV2006 11  5  0  0   .00000000      96 DD+AD WGS84 FIT  NGA
## 1400       .00000000   900.00000000 54044  .0000000000000
+   30     1  2  3  4  5  6  7  8  9 10 11 13 14 15 16 17 18
+         19 20 21 22 23 24 25 26 27 28 29 30 31  0  0  0  0
+          0  0  0  0  0  0  0  0  0  0  0  0  0  0  0  0  0
+          0  0  0  0  0  0  0  0  0  0  0  0  0  0  0  0  0
+          0  0  0  0  0  0  0  0  0  0  0  0  0  0  0  0  0
++         0  0  0  0  0  0  0  0  0  0  0  0  0  0  0  0  0
++         0  0  0  0  0  0  0  0  0  0  0  0  0  0  0  0  0
++         0  0  0  0  0  0  0  0  0  0  0  0  0  0  0  0  0
++         0  0  0  0  0  0  0  0  0  0  0  0  0  0  0  0  0
++         0  0  0  0  0  0  0  0  0  0  0  0  0  0  0  0  0
%c cc cc ccc ccc cccc cccc cccc cccc ccccc ccccc ccccc ccccc
%c cc cc ccc ccc cccc cccc cccc cccc ccccc ccccc ccccc ccccc
%f  0.0000000  0.000000000  0.00000000000  0.000000000000000
%f  0.0000000  0.000000000  0.00000000000  0.000000000000000
%i    0    0    0    0      0      0      0      0         0
%i    0    0    0    0      0      0      0      0         0
/*      NGA, ST. LOUIS,MO.                                  
/*   EPHEMERIS COMPUTED FROM  3 DAYS OF DATA                
/* CCCCCCCCCCCCCCCCCCCCCCCCCCCCCCCCCCCCCCCCCCCCCCCCCCCCCCCCC
/* CCCCCCCCCCCCCCCCCCCCCCCCCCCCCCCCCCCCCCCCCCCCCCCCCCCCCCCCC
*  2006 11  5 21 45   .00000000                                                 
P  1  13462.617956  14011.930636  18342.811163     87.116040                    
V  1 -22706.614652  -2108.337073  18417.453737       .024894                    
P  2 -13322.677477 -22914.390370  -3373.748044     51.829746                    
V  2    990.032113  -4842.560830  30947.861319       .036929                    
P  3  17966.177989  11919.664021 -15906.649364    371.337895                    
V  3 -19826.282905   2386.681506 -20530.172354       .342565                    
P  4  -3602.618063 -24455.909331   9169.019624    332.987231                    
V  4   7716.495839   9536.426947  28678.078520       .044934                    
P  5 -18374.954212   4808.829984  18277.167631    363.251275                    
V  5  10386.433447 -21506.849415  16058.086935      -.020827                    
P  6 -21934.779638   8009.261492 -12520.062347    560.401657                    
V  6 -16038.318141  -3913.677743  25159.770067      -.120540                    
P  7  -2703.993751  15453.626117 -21061.498828    501.218150                    
V  7 -27683.680357  -1169.367762   2571.386510      -.071979                    
P  8   4077.613477 -20078.640788 -16790.059083    -85.347784                    
V  8   9643.740125  18962.903142 -20922.019741      -.011473                    
P  9 -17879.474833  -9414.034964  16790.514722     43.383373                    
V  9  -8554.811600 -20705.756798 -19803.705680       .015802                    
P 10  -8574.228020 -13095.680610 -21509.539549     92.339895                    
V 10  16680.150131 -21372.153114   6696.454224       .006267                    
P 11  19671.638612   4561.409746  17296.327413    358.560638                    
V 11  10257.172708  19935.726483 -16564.553027       .017544                    
P 13  20753.738161  -7265.171555 -14958.949636    110.018928                    
V 13  18489.825106   3595.629968  24087.941630       .035917                    
P 14  -3939.857361  14260.608025  22132.316587     -1.768001                    
V 14 -27654.549752  -3210.403417  -2934.735673       .009577                    
P 15  -3775.645133  21150.141842 -15459.070214     59.056931                    
V 15  -9046.398138 -17526.200058 -22386.194064       .473885                    
P 16   5506.712164  16295.730650 -20124.962803     88.964172                    
V 16 -16027.947236  20198.995607  12040.478768       .036745                    
P 17   4169.146401 -14810.064720  21637.050282     90.588709                    
V 17  27339.936363   2967.102556  -3342.820365      -.013428                    
P 18 -17772.370637  19205.067308  -3259.383891   -252.127579                    
V 18     90.350033  -5415.577963 -31486.285025      -.005240                    
P 19  24379.304009   8390.342595  -6458.506964     31.338111                    
V 19  -8634.470211   1411.473682 -30212.750912       .038018                    
P 20  19402.542202  -7823.327767  16257.802775    -21.874759                    
V 20 -10191.320103  18286.227486  20880.255378       .000957                    
P 21  -9348.971022  14816.835286 -19716.696677     60.195742                    
V 21 -11323.971155 -22858.604985 -12300.892882       .015580                    
P 22  -9935.775506  22979.722749   8998.389397    147.239379                    
V 22  -9111.951238   7105.854426 -28751.868176       .025194                    
P 23  26289.255704   -671.153436  -4495.028220    139.883400                    
V 23   5330.256878   2811.949706  31150.879889       .006930                    
P 24  -7828.808015 -25085.048044   2907.563639     49.993895                    
V 24   4157.064941   2073.024352  31598.223305       .031441                    
P 25  10019.467577  24100.387695   4849.218349    400.394683                    
V 25  -5421.794418  -3434.323767  30960.463787       .070384                    
P 26 -24322.159613  -8364.278261  -8143.282552   -323.601479                    
V 26   9665.380448      6.220494 -29857.132943      -.160179                    
P 27   9994.319626 -12072.999274 -20780.882278     76.531166                    
V 27  13958.430926  24159.408956  -7405.565073       .019228                    
P 28  12169.934275 -22830.325655   5409.887774     14.938153                    
V 28   6314.157119  -3489.817028 -30971.754888      -.007941                    
P 29 -22109.964531  -9469.160729 -11380.443275    166.947549                    
V 29  14728.266631   -216.045288 -27573.804517       .485024                    
P 30 -18643.230854  16210.956474   9295.848141     15.521260                    
V 30   4086.191998 -12017.633917  28347.713058       .012052                    
P 31   7138.530766  24939.753684   5788.225733    -52.544662                    
V 31  -5508.613725  -5286.126660  30613.414610       .110074                    
EOF
